OBJECT_NAME,OBJECT_ID,EPOCH,MEAN_MOTION,ECCENTRICITY,INCLINATION,RA_OF_ASC_NODE,ARG_OF_PERICENTER,MEAN_ANOMALY,EPHEMERIS_TYPE,CLASSIFICATION_TYPE,NORAD_CAT_ID,ELEMENT_SET_NO,REV_AT_EPOCH,BSTAR,MEAN_MOTION_DOT,MEAN_MOTION_DDOT
ONEWEB-0524,2022-138AF,2026-07-23T12:48:57.675168,13.20735155,.0002897,87.9175,267.1948,82.9604,277.1859,0,U,54142,999,18410,.17857E-1,.7276E-4,0
ONEWEB-0525,2022-138AG,2026-07-23T16:55:23.014272,13.19724064,.0002317,87.9187,297.6963,106.1303,254.0085,0,U,54143,999,18164,-.87238E-4,-.22E-6,0
ONEWEB-0526,2022-138AH,2026-07-23T06:48:05.481792,13.19725094,.0002174,87.9189,297.7805,101.6202,258.5175,0,U,54144,999,18156,.12796E-3,.64E-6,0
ONEWEB-0529,2022-138AJ,2026-07-23T15:58:31.187136,13.19726441,.0002184,87.9182,297.7111,105.1860,254.9515,0,U,54145,999,18163,-.91166E-4,-.24E-6,0
ONEWEB-0531,2022-138AK,2026-07-23T14:18:38.173824,13.20770029,.0002275,87.9175,267.1797,75.2768,284.8617,0,U,54146,999,18411,.96157E-4,.52E-6,0
ONEWEB-0535,2022-138AL,2026-07-23T07:40:23.439072,13.19723798,.0001859,87.9195,297.7672,91.6269,268.5077,0,U,54147,999,18160,-.10319E-3,-.28E-6,0
ONEWEB-0536,2022-138AM,2026-07-23T04:53:47.633856,13.20770048,.0002482,87.9162,267.2761,74.2682,285.8725,0,U,54148,999,18405,.10614E-3,.56E-6,0
ONEWEB-0527,2022-166A,2026-07-23T08:37:42.058848,13.21827632,.0002079,87.9223,236.7967,96.0603,264.0768,0,U,54642,999,17631,.22754E-4,.22E-6,0
ONEWEB-0528,2022-166B,2026-07-23T08:38:55.567104,13.21825996,.0002234,87.9226,236.7994,99.0037,261.1349,0,U,54643,999,17632,.14655E-4,.19E-6,0
ONEWEB-0539,2022-166C,2026-07-23T04:06:25.435008,13.21823389,.0001852,87.9236,236.8115,97.4397,262.6948,0,U,54644,999,17629,-.14789E-3,-.48E-6,0
ONEWEB-0540,2022-166D,2026-07-23T04:16:18.792192,13.21824467,.0001989,87.9228,236.8378,95.4175,264.7185,0,U,54645,999,17628,-.70095E-4,-.16E-6,0
ONEWEB-0542,2022-166E,2026-07-23T02:31:57.541440,13.21826375,.00017802,87.9237,236.8237,97.7944,262.3392,0,U,54646,999,17628,.13558854E-3,.69E-6,0
ONEWEB-0545,2022-166F,2026-07-23T12:35:04.428384,13.21835184,.0001602,87.9226,236.7493,98.9186,261.2129,0,U,54647,999,17630,-.34712E-2,-.1421E-4,0
ONEWEB-0580,2022-166G,2026-07-23T02:53:45.008448,13.21819142,.00016387,87.9225,236.8290,90.3007,269.8315,0,U,54648,999,17629,.21414641E-2,.897E-5,0
ONEWEB-0582,2022-166H,2026-07-23T03:54:17.747424,13.21823802,.0001556,87.9232,236.8137,95.2892,264.8419,0,U,54649,999,17627,-.20909E-3,-.73E-6,0
ONEWEB-0583,2022-166J,2026-07-23T07:49:16.796640,13.21825630,.0001903,87.9230,236.8045,95.1813,264.9538,0,U,54650,999,17630,-.17699E-4,.6E-7,0
ONEWEB-0584,2022-166K,2026-07-23T02:51:19.811520,13.21824927,.00020071,87.9225,236.8302,93.2054,266.9310,0,U,54651,999,17626,.23283814E-3,.109E-5,0
ONEWEB-0585,2022-166L,2026-07-23T08:52:14.744640,13.21823798,.0002217,87.9232,236.7688,95.1484,264.9903,0,U,54652,999,17630,-.12149E-3,-.37E-6,0
ONEWEB-0586,2022-166M,2026-07-23T03:44:37.187808,13.21824533,.0001888,87.9224,236.8357,100.5951,259.5396,0,U,54653,999,17627,-.13269E-4,.8E-7,0
ONEWEB-0587,2022-166N,2026-07-23T13:04:10.766784,13.21826274,.0002414,87.9239,236.7360,94.6653,265.4756,0,U,54654,999,17648,-.53592E-4,-.9E-7,0
ONEWEB-0589,2022-166P,2026-07-23T03:39:47.109312,13.21825173,.0001191,87.9227,236.8217,87.7709,272.3561,0,U,54655,999,17629,.15562E-4,.19E-6,0
ONEWEB-0590,2022-166Q,2026-07-23T02:26:53.442816,13.21826598,.00021186,87.9236,236.8254,82.6223,277.5152,0,U,54656,999,17627,.22140579E-4,.22E-6,0
ONEWEB-0591,2022-166R,2026-07-23T08:11:03.486048,13.21823636,.0001996,87.9225,236.7892,92.8546,267.2816,0,U,54657,999,17633,-.93394E-4,-.26E-6,0
ONEWEB-0592,2022-166S,2026-07-23T02:48:54.575712,13.21824825,.00020746,87.9233,236.8152,95.6415,264.4956,0,U,54658,999,17618,.15564195E-3,.77E-6,0
ONEWEB-0593,2022-166T,2026-07-23T12:25:24.413952,13.21826505,.0001929,87.9228,236.7446,98.1731,261.9622,0,U,54659,999,17634,.15181E-3,.76E-6,0
ONEWEB-0594,2022-166U,2026-07-23T09:16:28.568928,13.21824650,.0002205,87.9227,236.7867,97.3002,262.8383,0,U,54660,999,17634,-.13476E-4,.7E-7,0
ONEWEB-0595,2022-166V,2026-07-23T12:20:34.558368,13.21825843,.0002294,87.9234,236.7446,92.8135,267.3262,0,U,54661,999,17633,.16471E-3,.81E-6,0
ONEWEB-0596,2022-166W,2026-07-23T02:39:13.089888,13.21824384,.00021403,87.9228,236.8343,94.7046,265.4332,0,U,54662,999,17628,.70790757E-4,.42E-6,0
ONEWEB-0597,2022-166X,2026-07-23T07:39:34.992000,13.21824035,.0001929,87.9229,236.7954,95.1597,264.9757,0,U,54663,999,17631,-.14431E-3,-.47E-6,0
ONEWEB-0600,2022-166Y,2026-07-23T09:01:56.981280,13.21826706,.0001988,87.9226,236.7753,100.4231,259.7127,0,U,54664,999,17629,-.11989E-4,.8E-7,0
