ONEWEB-0524             
1 54142U 22138AF  26204.53400087  .00007276  00000+0  17857-1 0  9993
2 54142  87.9175 267.1948 0002897  82.9604 277.1859 13.20735155184102
ONEWEB-0525             
1 54143U 22138AG  26204.70512748 -.00000022  00000+0 -87238-4 0  9998
2 54143  87.9187 297.6963 0002317 106.1303 254.0085 13.19724064181649
ONEWEB-0526             
1 54144U 22138AH  26204.28339678  .00000064  00000+0  12796-3 0  9991
2 54144  87.9189 297.7805 0002174 101.6202 258.5175 13.19725094181561
ONEWEB-0529             
1 54145U 22138AJ  26204.66563874 -.00000024  00000+0 -91166-4 0  9998
2 54145  87.9182 297.7111 0002184 105.1860 254.9515 13.19726441181638
ONEWEB-0531             
1 54146U 22138AK  26204.59627516  .00000052  00000+0  96157-4 0  9999
2 54146  87.9175 267.1797 0002275  75.2768 284.8617 13.20770029184111
ONEWEB-0535             
1 54147U 22138AL  26204.31971573 -.00000028  00000+0 -10319-3 0  9995
2 54147  87.9195 297.7672 0001859  91.6269 268.5077 13.19723798181609
ONEWEB-0536             
1 54148U 22138AM  26204.20402354  .00000056  00000+0  10614-3 0  9997
2 54148  87.9162 267.2761 0002482  74.2682 285.8725 13.20770048184050
ONEWEB-0527             
1 54642U 22166A   26204.35951457  .00000022  00000+0  22754-4 0  9998
2 54642  87.9223 236.7967 0002079  96.0603 264.0768 13.21827632176312
ONEWEB-0528             
1 54643U 22166B   26204.36036536  .00000019  00000+0  14655-4 0  9999
2 54643  87.9226 236.7994 0002234  99.0037 261.1349 13.21825996176328
ONEWEB-0539             
1 54644U 22166C   26204.17112772 -.00000048  00000+0 -14789-3 0  9997
2 54644  87.9236 236.8115 0001852  97.4397 262.6948 13.21823389176293
ONEWEB-0540             
1 54645U 22166D   26204.17799528 -.00000016  00000+0 -70095-4 0  9996
2 54645  87.9228 236.8378 0001989  95.4175 264.7185 13.21824467176282
ONEWEB-0542             
1 54646U 22166E   26204.10552710  .00000069  00000+0  13559-3 0  9997
2 54646  87.9237 236.8237 0001780  97.7944 262.3392 13.21826375176289
ONEWEB-0545             
1 54647U 22166F   26204.52435681 -.00001421  00000+0 -34712-2 0  9999
2 54647  87.9226 236.7493 0001602  98.9186 261.2129 13.21835184176302
ONEWEB-0580             
1 54648U 22166G   26204.12065982  .00000897  00000+0  21415-2 0  9999
2 54648  87.9225 236.8290 0001638  90.3007 269.8315 13.21819142176290
ONEWEB-0582             
1 54649U 22166H   26204.16270541 -.00000073  00000+0 -20909-3 0  9999
2 54649  87.9232 236.8137 0001556  95.2892 264.8419 13.21823802176270
ONEWEB-0583             
1 54650U 22166J   26204.32588885  .00000006  00000+0 -17699-4 0  9990
2 54650  87.9230 236.8045 0001903  95.1813 264.9538 13.21825630176304
ONEWEB-0584             
1 54651U 22166K   26204.11897930  .00000109  00000+0  23284-3 0  9991
2 54651  87.9225 236.8302 0002007  93.2054 266.9310 13.21824927176260
ONEWEB-0585             
1 54652U 22166L   26204.36961510 -.00000037  00000+0 -12149-3 0  9995
2 54652  87.9232 236.7688 0002217  95.1484 264.9903 13.21823798176302
ONEWEB-0586             
1 54653U 22166M   26204.15598597  .00000008  00000+0 -13269-4 0  9996
2 54653  87.9224 236.8357 0001888 100.5951 259.5396 13.21824533176271
ONEWEB-0587             
1 54654U 22166N   26204.54456906 -.00000009  00000+0 -53592-4 0  9992
2 54654  87.9239 236.7360 0002414  94.6653 265.4756 13.21826274176482
ONEWEB-0589             
1 54655U 22166P   26204.15262858  .00000019  00000+0  15562-4 0  9995
2 54655  87.9227 236.8217 0001191  87.7709 272.3561 13.21825173176295
ONEWEB-0590             
1 54656U 22166Q   26204.10200744  .00000022  00000+0  22141-4 0  9992
2 54656  87.9236 236.8254 0002118  82.6223 277.5152 13.21826598176275
ONEWEB-0591             
1 54657U 22166R   26204.34101257 -.00000026  00000+0 -93394-4 0  9992
2 54657  87.9225 236.7892 0001996  92.8546 267.2816 13.21823636176335
ONEWEB-0592             
1 54658U 22166S   26204.11729833  .00000077  00000+0  15564-3 0  9990
2 54658  87.9233 236.8152 0002074  95.6415 264.4956 13.21824825176187
ONEWEB-0593             
1 54659U 22166T   26204.51764368  .00000076  00000+0  15181-3 0  9991
2 54659  87.9228 236.7446 0001929  98.1731 261.9622 13.21826505176341
ONEWEB-0594             
1 54660U 22166U   26204.38644177  .00000007  00000+0 -13476-4 0  9994
2 54660  87.9227 236.7867 0002205  97.3002 262.8383 13.21824650176342
ONEWEB-0595             
1 54661U 22166V   26204.51428887  .00000081  00000+0  16471-3 0  9996
2 54661  87.9234 236.7446 0002294  92.8135 267.3262 13.21825843176339
ONEWEB-0596             
1 54662U 22166W   26204.11056817  .00000042  00000+0  70791-4 0  9996
2 54662  87.9228 236.8343 0002140  94.7046 265.4332 13.21824384176282
ONEWEB-0597             
1 54663U 22166X   26204.31915500 -.00000047  00000+0 -14431-3 0  9997
2 54663  87.9229 236.7954 0001929  95.1597 264.9757 13.21824035176313
ONEWEB-0600             
1 54664U 22166Y   26204.37635395  .00000008  00000+0 -11989-4 0  9997
2 54664  87.9226 236.7753 0001988 100.4231 259.7127 13.21826706176295
